QIANFAN-208             
1 69807U 26153H   26198.98332960  .00000151  00000+0  57811-4 0  9995
2 69807  88.9925 358.7264 0008541 174.8460 185.2823 14.25462623  1944
QIANFAN-209             
1 69808U 26153J   26199.26959398  .00000134  00000+0  52753-4 0  9999
2 69808  88.9925 358.6948 0007709 170.4433 189.6907 14.23086656  1981
QIANFAN-210             
1 69809U 26153K   26199.26606872  .00000125  00000+0  48619-4 0  9992
2 69809  88.9926 358.6944 0008256 173.1711 186.9595 14.23252760  1980
QIANFAN-211             
1 69810U 26153L   26199.26548728  .00000139  00000+0  54740-4 0  9996
2 69810  88.9926 358.6942 0007876 170.1589 189.9759 14.23382353  1984
QIANFAN-212             
1 69811U 26153M   26198.55680840 -.01812966  00000+0 -88345+0 0  9995
2 69811  88.9920 358.7744 0007528 169.0889 191.0467 14.21837100  1886
QIANFAN-213             
1 69812U 26153N   26198.48676247 -.01819392  00000+0 -89107+0 0  9991
2 69812  88.9919 358.7827 0006786 174.7343 185.3920 14.21585762  1873
QIANFAN-214             
1 69813U 26153P   26198.83866892  .00000095  00000+0  33204-4 0  9999
2 69813  88.9925 358.7421 0008114 175.5831 184.5436 14.26715399  1924
QIANFAN-215             
1 69814U 26153Q   26199.25945320  .00000133  00000+0  48930-4 0  9996
2 69814  88.9924 358.6931 0008257 175.5942 184.5326 14.26718939  1987
QIANFAN-216             
1 69815U 26153R   26199.25944511  .00000137  00000+0  50405-4 0  9992
2 69815  88.9925 358.6933 0008221 175.3587 184.7684 14.26720069  1981
QIANFAN-217             
1 69816U 26153S   26199.25896637  .00000056  00000+0  17244-4 0  9992
2 69816  88.9924 358.6931 0007932 172.0905 188.0415 14.26768158  1985
QIANFAN-218             
1 69817U 26153T   26199.18843030  .00000132  00000+0  48250-4 0  9990
2 69817  88.9927 358.7016 0007698 169.5743 190.5612 14.26811220  1979
CZ-6A R/B               
1 69818U 26153U   26199.28093558  .00000157  00000+0  31552-4 0  9998
2 69818  89.0166 358.6132 0086996  76.6926 284.3966 14.53449445  2021
STARLINK-37520          
1 69819U 26154A   26199.25002315 -.00013028  00000+0 -62531-4 0  9992
2 69819  53.1584 277.6426 0001270  92.3407  25.0089 15.80883352  3167
STARLINK-37553          
1 69820U 26154B   26199.25002315 -.00024424  00000+0 -12046-3 0  9991
2 69820  53.1585 277.6334 0001074 100.3112  21.3058 15.80889138  3166
STARLINK-37561          
1 69821U 26154C   26199.25002315 -.00035789  00000+0 -17836-3 0  9990
2 69821  53.1586 277.6244 0001135 102.9607  22.9282 15.80893224  3160
STARLINK-37521          
1 69822U 26154D   26199.25002315 -.00067253  00000+0 -33942-3 0  9998
2 69822  53.1585 277.6160 0001265  91.4821  38.6778 15.80899536  3167
STARLINK-37628          
1 69823U 26154E   26199.25002315 -.00035736  00000+0 -17811-3 0  9997
2 69823  53.1587 277.6069 0001112  95.5376  38.8952 15.80891641  3164
STARLINK-37695          
1 69824U 26154F   26199.25002315 -.00040544  00000+0 -20266-3 0  9999
2 69824  53.1593 277.5255 0000883 133.5773  40.4090 15.80891942  3162
STARLINK-37690          
1 69825U 26154G   26199.25002315 -.00227183  00000+0 -11717-2 0  9996
2 69825  53.1589 277.5895 0001400  98.6080  44.3565 15.80987059  3161
STARLINK-37710          
1 69826U 26154H   26199.25002315 -.00054747  00000+0 -27533-3 0  9995
2 69826  53.1590 277.5808 0001034  93.4371  53.8113 15.80893547  3169
STARLINK-38031          
1 69827U 26154J   26199.25002315 -.00135072  00000+0 -68956-3 0  9991
2 69827  53.1590 277.5714 0001176  94.6744  56.8375 15.80934172  3163
STARLINK-38001          
1 69828U 26154K   26199.25002315 -.00010974  00000+0 -52121-4 0  9993
2 69828  53.1592 277.5627 0001142  97.4136  58.3819 15.80876083  3164
STARLINK-37622          
1 69829U 26154L   26199.25002315 -.00104524  00000+0 -53140-3 0  9990
2 69829  53.1592 277.5540 0001317  87.1288  72.9304 15.80914711  3169
STARLINK-37621          
1 69830U 26154M   26199.25002315 -.00043894  00000+0 -21984-3 0  9995
2 69830  53.1592 277.5453 0001004  92.3354  72.0024 15.80886097  3164
STARLINK-37918          
1 69831U 26154N   26199.25002315 -.00038632  00000+0 -19288-3 0  9994
2 69831  53.1592 277.5363 0001222 100.5784  68.0259 15.80892545  3166
STARLINK-37887          
1 69832U 26154P   26199.25002315 -.00027491  00000+0 -13607-3 0  9995
2 69832  53.1591 277.5274 0000901  86.4798  86.3946 15.80891055  3168
STARLINK-37624          
1 69833U 26154Q   26199.25002315 -.00059081  00000+0 -29749-3 0  9990
2 69833  53.1591 277.5185 0001149  83.1185  94.0280 15.80898158  3167
STARLINK-37769          
1 69834U 26154R   26199.25002315 -.00051822  00000+0 -26029-3 0  9994
2 69834  53.1590 277.5095 0001262  85.2513  96.1671 15.80896909  3160
STARLINK-37247          
1 69835U 26154S   26199.25002315 -.00060039  00000+0 -30247-3 0  9992
2 69835  53.1590 277.5007 0001163  84.1929 101.5034 15.80892844  3262
STARLINK-37569          
1 69836U 26154T   26199.25002315 -.00080751  00000+0 -40872-3 0  9991
2 69836  53.1590 277.4923 0001219  92.3785  97.5806 15.80908943  3160
