OBJECT_NAME,OBJECT_ID,EPOCH,MEAN_MOTION,ECCENTRICITY,INCLINATION,RA_OF_ASC_NODE,ARG_OF_PERICENTER,MEAN_ANOMALY,EPHEMERIS_TYPE,CLASSIFICATION_TYPE,NORAD_CAT_ID,ELEMENT_SET_NO,REV_AT_EPOCH,BSTAR,MEAN_MOTION_DOT,MEAN_MOTION_DDOT
QIANFAN-208,2026-153H,2026-07-17T23:35:59.677440,14.25462623,.00085414,88.9925,358.7264,174.8460,185.2823,0,U,69807,999,194,.57810954E-4,.151E-5,0
QIANFAN-209,2026-153J,2026-07-18T06:28:12.919872,14.23086656,.00077093,88.9925,358.6948,170.4433,189.6907,0,U,69808,999,198,.52753211E-4,.134E-5,0
QIANFAN-210,2026-153K,2026-07-18T06:23:08.337408,14.23252760,.00082569,88.9926,358.6944,173.1711,186.9595,0,U,69809,999,198,.48618841E-4,.125E-5,0
QIANFAN-211,2026-153L,2026-07-18T06:22:18.100992,14.23382353,.00078769,88.9926,358.6942,170.1589,189.9759,0,U,69810,999,198,.54739521E-4,.139E-5,0
QIANFAN-212,2026-153M,2026-07-17T13:21:48.245760,14.21837100,.0007528,88.9920,358.7744,169.0889,191.0467,0,U,69811,999,188,-.88345E+0,-.1812966E-1,0
QIANFAN-213,2026-153N,2026-07-17T11:40:56.277408,14.21585762,.0006786,88.9919,358.7827,174.7343,185.3920,0,U,69812,999,187,-.89107E+0,-.1819392E-1,0
QIANFAN-214,2026-153P,2026-07-17T20:07:40.994688,14.26715399,.00081141,88.9925,358.7421,175.5831,184.5436,0,U,69813,999,192,.33203706E-4,.95E-6,0
QIANFAN-215,2026-153Q,2026-07-18T06:13:36.756480,14.26718939,.00082573,88.9924,358.6931,175.5942,184.5326,0,U,69814,999,198,.48929922E-4,.133E-5,0
QIANFAN-216,2026-153R,2026-07-18T06:13:36.057504,14.26720069,.00082215,88.9925,358.6933,175.3587,184.7684,0,U,69815,999,198,.50405199E-4,.137E-5,0
QIANFAN-217,2026-153S,2026-07-18T06:12:54.694368,14.26768158,.00079326,88.9924,358.6931,172.0905,188.0415,0,U,69816,999,198,.17244188E-4,.56E-6,0
QIANFAN-218,2026-153T,2026-07-18T04:31:20.377920,14.26811220,.00076988,88.9927,358.7016,169.5743,190.5612,0,U,69817,999,197,.48250077E-4,.132E-5,0
CZ-6A R/B,2026-153U,2026-07-18T06:44:32.834112,14.53449445,.00869969,89.0166,358.6132,76.6926,284.3966,0,U,69818,999,202,.31552231E-4,.157E-5,0
STARLINK-37520,2026-154A,2026-07-18T06:00:02.000160,15.80883352,.00012709,53.1584,277.6426,92.3407,25.0089,0,U,69819,999,316,-.625307E-4,-.13028E-3,0
STARLINK-37553,2026-154B,2026-07-18T06:00:02.000160,15.80889138,.00010744,53.1585,277.6334,100.3112,21.3058,0,U,69820,999,316,-.12045748E-3,-.24424E-3,0
STARLINK-37561,2026-154C,2026-07-18T06:00:02.000160,15.80893224,.00011355,53.1586,277.6244,102.9607,22.9282,0,U,69821,999,316,-.17836061E-3,-.35789E-3,0
STARLINK-37521,2026-154D,2026-07-18T06:00:02.000160,15.80899536,.00012656,53.1585,277.6160,91.4821,38.6778,0,U,69822,999,316,-.3394174E-3,-.67253E-3,0
STARLINK-37628,2026-154E,2026-07-18T06:00:02.000160,15.80891641,.00011127,53.1587,277.6069,95.5376,38.8952,0,U,69823,999,316,-.17810678E-3,-.35736E-3,0
STARLINK-37695,2026-154F,2026-07-18T06:00:02.000160,15.80891942,.00008831,53.1593,277.5255,133.5773,40.4090,0,U,69824,999,316,-.20266228E-3,-.40544E-3,0
STARLINK-37690,2026-154G,2026-07-18T06:00:02.000160,15.80987059,.00014005,53.1589,277.5895,98.6080,44.3565,0,U,69825,999,316,-.11716658E-2,-.227183E-2,0
STARLINK-37710,2026-154H,2026-07-18T06:00:02.000160,15.80893547,.0001034,53.1590,277.5808,93.4371,53.8113,0,U,69826,999,316,-.27532947E-3,-.54747E-3,0
STARLINK-38031,2026-154J,2026-07-18T06:00:02.000160,15.80934172,.00011764,53.1590,277.5714,94.6744,56.8375,0,U,69827,999,316,-.68956142E-3,-.135072E-2,0
STARLINK-38001,2026-154K,2026-07-18T06:00:02.000160,15.80876083,.00011423,53.1592,277.5627,97.4136,58.3819,0,U,69828,999,316,-.52121176E-4,-.10974E-3,0
STARLINK-37622,2026-154L,2026-07-18T06:00:02.000160,15.80914711,.00013178,53.1592,277.5540,87.1288,72.9304,0,U,69829,999,316,-.53139645E-3,-.104524E-2,0
STARLINK-37621,2026-154M,2026-07-18T06:00:02.000160,15.80886097,.00010043,53.1592,277.5453,92.3354,72.0024,0,U,69830,999,316,-.21984104E-3,-.43894E-3,0
STARLINK-37918,2026-154N,2026-07-18T06:00:02.000160,15.80892545,.00012229,53.1592,277.5363,100.5784,68.0259,0,U,69831,999,316,-.19288087E-3,-.38632E-3,0
STARLINK-37887,2026-154P,2026-07-18T06:00:02.000160,15.80891055,.00009011,53.1591,277.5274,86.4798,86.3946,0,U,69832,999,316,-.13607298E-3,-.27491E-3,0
STARLINK-37624,2026-154Q,2026-07-18T06:00:02.000160,15.80898158,.00011491,53.1591,277.5185,83.1185,94.0280,0,U,69833,999,316,-.29748718E-3,-.59081E-3,0
STARLINK-37769,2026-154R,2026-07-18T06:00:02.000160,15.80896909,.00012622,53.1590,277.5095,85.2513,96.1671,0,U,69834,999,316,-.26028842E-3,-.51822E-3,0
STARLINK-37247,2026-154S,2026-07-18T06:00:02.000160,15.80892844,.00011636,53.1590,277.5007,84.1929,101.5034,0,U,69835,999,326,-.30247444E-3,-.60039E-3,0
STARLINK-37569,2026-154T,2026-07-18T06:00:02.000160,15.80908943,.00012193,53.1590,277.4923,92.3785,97.5806,0,U,69836,999,316,-.40871739E-3,-.80751E-3,0
